NORAD_CAT_ID,OBJECT_NAME,OBJECT_TYPE,EPOCH,MEAN_MOTION,ECCENTRICITY,INCLINATION,RA_OF_ASC_NODE,ARG_OF_PERICENTER,MEAN_ANOMALY,BSTAR,MEAN_MOTION_DOT,MEAN_MOTION_DDOT,TLE_LINE0,TLE_LINE1,TLE_LINE2,SEMIMAJOR_AXIS,PERIOD,APOGEE,PERIGEE,DECAYED
52846.0,STARLINK-4212,PAYLOAD,2023-11-20 20:49:05,15.08838525,0.00013,53.2147,204.2408,79.3014,280.8124,7.721e-05,9.41e-06,0.0,0 STARLINK-4212,1 52846U 22062S   23324.86742977  .00000941  00000-0  77210-4 0  9996,2 52846  53.2147 204.2408 0001300  79.3014 280.8124 15.08838525 79003,6917.885,95.438,540.649,538.851,0.0
52846.0,STARLINK-4212,PAYLOAD,2023-11-21 09:32:11,15.08830501,0.0001359,53.2148,201.8613,77.7817,282.3328,0.00036952,5.596e-05,0.0,0 STARLINK-4212,1 52846U 22062S   23325.39735566  .00005596  00000-0  36952-3 0  9999,2 52846  53.2148 201.8613 0001359  77.7817 282.3328 15.08830501 79573,6917.909,95.438,540.715,538.834,0.0
52846.0,STARLINK-4212,PAYLOAD,2023-11-21 20:39:53,15.08841562,0.0001353,53.2151,199.78,76.077,284.0373,0.00060864,9.412e-05,0.0,0 STARLINK-4212,1 52846U 22062S   23325.86103773  .00009412  00000-0  60864-3 0  9990,2 52846  53.2151 199.7800 0001353  76.0770 284.0373 15.08841562 79156,6917.876,95.437,540.677,538.805,0.0
52846.0,STARLINK-4212,PAYLOAD,2023-11-21 22:15:16,15.0884391,0.0001378,53.2151,199.4826,76.2092,283.9054,0.00069174,0.00010739,0.0,0 STARLINK-4212,1 52846U 22062S   23325.92727761  .00010739  00000-0  69174-3 0  9993,2 52846  53.2151 199.4826 0001378  76.2092 283.9054 15.08843910 79655,6917.868,95.437,540.687,538.78,0.0
52846.0,STARLINK-4212,PAYLOAD,2023-11-22 18:55:17,15.08853831,0.0001441,53.2155,195.6167,75.1549,284.9603,0.00066976,0.00010391,0.0,0 STARLINK-4212,1 52846U 22062S   23326.78839549  .00010391  00000-0  66976-3 0  9997,2 52846  53.2155 195.6167 0001441  75.1549 284.9603 15.08853831 79789,6917.838,95.437,540.7,538.706,0.0
52846.0,STARLINK-4212,PAYLOAD,2023-11-22 20:30:40,15.08854146,0.0001435,53.2155,195.3194,75.7837,284.3315,0.00060632,9.378e-05,0.0,0 STARLINK-4212,1 52846U 22062S   23326.85463479  .00009378  00000-0  60632-3 0  9996,2 52846  53.2155 195.3194 0001435  75.7837 284.3315 15.08854146 79307,6917.837,95.437,540.695,538.709,0.0
52846.0,STARLINK-4212,PAYLOAD,2023-11-22 22:06:03,15.08856892,0.0001439,53.2156,195.022,76.5345,283.5807,0.00064966,0.00010071,0.0,0 STARLINK-4212,1 52846U 22062S   23326.92087361  .00010071  00000-0  64966-3 0  9992,2 52846  53.2156 195.0220 0001439  76.5345 283.5807 15.08856892 79310,6917.829,95.436,540.689,538.698,0.0
52846.0,STARLINK-4212,PAYLOAD,2023-11-23 20:21:27,15.08834828,0.0001483,53.2152,190.8579,114.5343,245.5804,-3.2652e-05,-8.08e-06,0.0,0 STARLINK-4212,1 52846U 22062S   23327.84823930 -.00000808  00000-0 -32652-4 0  9991,2 52846  53.2152 190.8579 0001483 114.5343 245.5804 15.08834828 79945,6917.896,95.438,540.787,538.735,0.0
52846.0,STARLINK-4212,PAYLOAD,2023-11-23 21:56:51,15.0883178,0.0001386,53.2154,190.5612,108.7653,251.3489,-0.00010299,-1.926e-05,0.0,0 STARLINK-4212,1 52846U 22062S   23327.91448065 -.00001926  00000-0 -10299-3 0  9995,2 52846  53.2154 190.5612 0001386 108.7653 251.3489 15.08831780 79468,6917.906,95.438,540.729,538.812,0.0
52846.0,STARLINK-4212,PAYLOAD,2023-11-24 13:50:42,15.08835391,0.000137,53.2153,187.588,111.8537,248.2601,-0.00013484,-2.433e-05,0.0,0 STARLINK-4212,1 52846U 22062S   23328.57688498 -.00002433  00000-0 -13484-3 0  9997,2 52846  53.2153 187.5880 0001370 111.8537 248.2601 15.08835391 79563,6917.894,95.438,540.707,538.812,0.0
52846.0,STARLINK-4212,PAYLOAD,2023-11-24 21:47:38,15.08840915,0.0001348,53.215,186.102,106.6138,253.5002,8.9764e-06,-1.45e-06,0.0,0 STARLINK-4212,1 52846U 22062S   23328.90808314 -.00000145  00000-0  89764-5 0  9998,2 52846  53.2150 186.1020 0001348 106.6138 253.5002 15.08840915 79613,6917.878,95.437,540.675,538.81,0.0
52846.0,STARLINK-4212,PAYLOAD,2023-11-25 21:38:25,15.08860005,0.0001321,53.2145,181.6414,102.3351,257.7789,0.0006518,0.00010106,0.0,0 STARLINK-4212,1 52846U 22062S   23329.90168096  .00010106  00000-0  65180-3 0  9996,2 52846  53.2145 181.6414 0001321 102.3351 257.7789 15.08860005 79761,6917.819,95.436,540.598,538.77,0.0
52846.0,STARLINK-4212,PAYLOAD,2023-11-25 23:13:48,15.088673,0.0001325,53.2144,181.3441,103.0914,257.0226,0.00083128,0.00012976,0.0,0 STARLINK-4212,1 52846U 22062S   23329.96791926  .00012976  00000-0  83128-3 0  9995,2 52846  53.2144 181.3441 0001325 103.0914 257.0226 15.08867300 80265,6917.797,95.436,540.579,538.745,0.0
52846.0,STARLINK-4212,PAYLOAD,2023-11-26 19:53:48,15.08844221,0.0002285,53.2145,177.4702,148.8586,211.2542,7.4273e-05,8.94e-06,0.0,0 STARLINK-4212,1 52846U 22062S   23330.82903754  .00000894  00000-0  74273-4 0  9994,2 52846  53.2145 177.4702 0002285 148.8586 211.2542 15.08844221 80394,6917.867,95.437,541.313,538.152,0.0
52846.0,STARLINK-4212,PAYLOAD,2023-11-26 21:29:12,15.08840661,0.0001258,53.2138,177.1811,85.871,274.2426,-3.2634e-05,-8.07e-06,0.0,0 STARLINK-4212,1 52846U 22062S   23330.89528318 -.00000807  00000-0 -32634-4 0  9991,2 52846  53.2138 177.1811 0001258  85.8710 274.2426 15.08840661 79912,6917.878,95.438,540.614,538.873,0.0
52846.0,STARLINK-4212,PAYLOAD,2023-11-26 23:04:35,15.0884062,0.000126,53.2138,176.8834,87.584,272.5296,-1.0421e-05,-4.54e-06,0.0,0 STARLINK-4212,1 52846U 22062S   23330.96152315 -.00000454  00000-0 -10421-4 0  9997,2 52846  53.2138 176.8834 0001260  87.5840 272.5296 15.08840620 80417,6917.878,95.438,540.615,538.872,0.0
52846.0,STARLINK-4212,PAYLOAD,2023-11-27 13:23:04,15.08833745,0.0001333,53.2136,174.208,76.0752,284.0389,-2.6036e-05,-7.02e-06,0.0,0 STARLINK-4212,1 52846U 22062S   23331.55768760 -.00000702  00000-0 -26036-4 0  9995,2 52846  53.2136 174.2080 0001333  76.0752 284.0389 15.08833745 80013,6917.9,95.438,540.687,538.842,0.0
52846.0,STARLINK-4212,PAYLOAD,2023-11-27 18:09:13,15.08834882,0.0001305,53.2138,173.3148,81.8072,278.3068,-2.2288e-05,-6.43e-06,0.0,0 STARLINK-4212,1 52846U 22062S   23331.75640827 -.00000643  00000-0 -22288-4 0  9999,2 52846  53.2138 173.3148 0001305  81.8072 278.3068 15.08834882 80538,6917.896,95.438,540.664,538.858,0.0
52846.0,STARLINK-4212,PAYLOAD,2023-11-27 21:19:59,15.08838624,0.0001387,53.2141,172.7202,77.2967,282.818,1.6061e-05,-3.2e-07,0.0,0 STARLINK-4212,1 52846U 22062S   23331.88888802 -.00000032  00000-0  16061-4 0  9993,2 52846  53.2141 172.7202 0001387  77.2967 282.8180 15.08838624 80069,6917.885,95.438,540.709,538.79,0.0
52846.0,STARLINK-4212,PAYLOAD,2023-11-28 19:35:23,15.0884511,0.0001375,53.2145,168.5568,76.7904,283.3242,0.00024853,3.67e-05,0.0,0 STARLINK-4212,1 52846U 22062S   23332.81624735  .00003670  00000-0  24853-3 0  9997,2 52846  53.2145 168.5568 0001375  76.7904 283.3242 15.08845110 80695,6917.865,95.437,540.681,538.779,0.0
52846.0,STARLINK-4212,PAYLOAD,2023-11-28 22:46:09,15.08848997,0.000137,53.2145,167.9618,78.1431,281.9714,0.00029274,4.375e-05,0.0,0 STARLINK-4212,1 52846U 22062S   23332.94872509  .00004375  00000-0  29274-3 0  9990,2 52846  53.2145 167.9618 0001370  78.1431 281.9714 15.08848997 80223,6917.853,95.437,540.666,538.77,0.0
52846.0,STARLINK-4212,PAYLOAD,2023-11-29 19:26:10,15.08844481,0.0001399,53.2148,164.094,86.4987,273.6165,0.0001273,1.739e-05,0.0,0 STARLINK-4212,1 52846U 22062S   23333.80984659  .00001739  00000-0  12730-3 0  9996,2 52846  53.2148 164.0940 0001399  86.4987 273.6165 15.08844481 80841,6917.867,95.437,540.7,538.764,0.0
52846.0,STARLINK-4212,PAYLOAD,2023-12-01 19:07:44,15.08844235,0.0001428,53.217,155.1758,103.4849,256.6302,0.00010042,1.311e-05,0.0,0 STARLINK-4212,1 52846U 22062S   23335.79704284  .00001311  00000-0  10042-3 0  9990,2 52846  53.2170 155.1758 0001428 103.4849 256.6302 15.08844235 81149,6917.867,95.437,540.72,538.745,0.0
52846.0,STARLINK-4212,PAYLOAD,2023-12-02 12:36:59,15.08842619,0.0001422,53.2167,151.9046,103.3269,256.7882,0.00010362,1.362e-05,0.0,0 STARLINK-4212,1 52846U 22062S   23336.52568354  .00001362  00000-0  10362-3 0  9999,2 52846  53.2167 151.9046 0001422 103.3269 256.7882 15.08842619 80763,6917.872,95.437,540.721,538.754,0.0
52846.0,STARLINK-4212,PAYLOAD,2023-12-02 17:23:08,15.08839351,0.0001415,53.2169,151.0122,105.3538,254.761,6.1771e-05,6.95e-06,0.0,0 STARLINK-4212,1 52846U 22062S   23336.72440564  .00000695  00000-0  61771-4 0  9992,2 52846  53.2169 151.0122 0001415 105.3538 254.7610 15.08839351 81288,6917.882,95.438,540.726,538.768,0.0
52846.0,STARLINK-4212,PAYLOAD,2023-12-03 20:24:43,15.08829213,0.000136,53.2167,145.957,100.8314,259.2831,-5.7362e-05,-1.2e-05,0.0,0 STARLINK-4212,1 52846U 22062S   23337.85050053 -.00001200  00000-0 -57362-4 0  9993,2 52846  53.2167 145.9570 0001360 100.8314 259.2831 15.08829213 81456,6917.913,95.438,540.719,538.838,0.0
52846.0,STARLINK-4212,PAYLOAD,2023-12-04 10:43:11,15.08827345,0.0001352,53.2167,143.2779,86.1749,273.9398,1.6592e-06,-2.61e-06,0.0,0 STARLINK-4212,1 52846U 22062S   23338.44666388 -.00000261  00000-0  16592-5 0  9999,2 52846  53.2167 143.2779 0001352  86.1749 273.9398 15.08827345 81058,6917.919,95.438,540.719,538.849,0.0
52846.0,STARLINK-4212,PAYLOAD,2023-12-05 10:33:58,15.08834432,0.0001298,53.2167,138.8198,91.2835,268.8306,0.0001259,1.716e-05,0.0,0 STARLINK-4212,1 52846U 22062S   23339.44025981  .00001716  00000-0  12590-3 0  9995,2 52846  53.2167 138.8198 0001298  91.2835 268.8306 15.08834432 81692,6917.897,95.438,540.66,538.864,0.0
52846.0,STARLINK-4212,PAYLOAD,2023-12-06 10:24:44,15.08844849,0.000131,53.2169,134.3599,95.2794,264.8348,9.0529e-05,1.153e-05,0.0,0 STARLINK-4212,1 52846U 22062S   23340.43385181  .00001153  00000-0  90529-4 0  9991,2 52846  53.2169 134.3599 0001310  95.2794 264.8348 15.08844849 81845,6917.866,95.437,540.637,538.824,0.0
52846.0,STARLINK-4212,PAYLOAD,2023-12-06 19:57:03,15.0884743,0.0001302,53.2168,132.5749,96.3913,263.7227,9.9595e-05,1.298e-05,0.0,0 STARLINK-4212,1 52846U 22062S   23340.83128809  .00001298  00000-0  99595-4 0  9999,2 52846  53.2168 132.5749 0001302  96.3913 263.7227 15.08847430 81413,6917.858,95.437,540.623,538.822,0.0
